SL-8 R/B                
1 11574U 79089B   26102.17650095  .00000188  00000+0  64794-4 0  9995
2 11574  74.0711  29.0537 0016204 196.5054 163.5577 14.42373816440932
SL-14 R/B               
1 11672U 80005B   26101.88152113  .00000460  00000+0  43841-4 0  9992
2 11672  82.5111 275.7402 0016955  56.0481 304.2347 14.90970758481437
SL-8 R/B                
1 12139U 81003B   26101.96466932  .00015534  00000+0  38590-3 0  9998
2 12139  82.9372 259.2173 0257972  63.0698 299.6636 15.12504618319706
SL-3 R/B                
1 12465U 81046B   26102.25929288  .00008479  00000+0  19150-3 0  9999
2 12465  81.2294 249.4007 0018025 262.0428  97.8769 15.42861973443601
SL-3 R/B                
1 12904U 81103B   26102.24498119  .00002633  00000+0  11474-3 0  9991
2 12904  81.1603 174.0665 0013564 169.0819 191.0710 15.21773640978334
SL-3 R/B                
1 13068U 82013B   26102.30579250  .00002635  00000+0  11236-3 0  9995
2 13068  81.1716 121.3582 0023418  68.3213 292.0509 15.22315964409465
SL-3 R/B                
1 13154U 82039B   26102.24948094  .00001289  00000+0  76638-4 0  9990
2 13154  81.1534 177.2587 0027902 211.3969 148.5592 15.10271440386709
SL-3 R/B                
1 13403U 82079B   26102.26081811  .00002938  00000+0  11487-3 0  9990
2 13403  81.1465 153.4309 0025130  54.8865 305.4719 15.25227950382819
SL-14 R/B               
1 13553U 82092B   26102.28687920  .00000319  00000+0  33043-4 0  9990
2 13553  82.5645 109.9646 0020142 185.2242 185.3318 14.86697237333929
SL-3 R/B                
1 13819U 83010B   26102.26757852  .00008746  00000+0  16914-3 0  9995
2 13819  81.1029 321.0450 0015062 291.9498  68.0146 15.47471401363131
SL-3 R/B                
1 14208U 83075B   26102.24092223  .00007333  00000+0  18900-3 0  9999
2 14208  97.6137 108.1102 0023222 108.5195 251.8576 15.39241068335311
COSMOS 1536             
1 14699U 84013A   26102.20461358  .00004964  00000+0  20115-3 0  9999
2 14699  82.5426  74.5139 0015048 157.0568 203.1345 15.24311002277729
SL-14 R/B               
1 14820U 84027B   26102.29413171  .00000350  00000+0  37159-4 0  9991
2 14820  82.5439 213.4979 0017036 218.3564 141.6442 14.86014238252625
SL-8 R/B                
1 15483U 85006B   26102.25871086  .00000141  00000+0  55323-4 0  9995
2 15483  74.0466 199.3783 0017290 106.5097 284.1050 14.37806813158855
SL-12 R/B(2)            
1 15772U 85042D   26102.19632771  .00000079  00000+0  56731-4 0  9999
2 15772  71.1106  16.9383 0032991  72.5019  79.1639 14.21992386119155
SL-14 R/B               
1 15945U 85069B   26102.13401611  .00000327  00000+0  34051-4 0  9998
2 15945  82.5297 353.4940 0020361  82.2454 278.1073 14.86469622177803
SL-16 R/B               
1 16182U 85097B   26102.33351625  .00000249  00000+0  14862-3 0  9994
2 16182  71.0020  69.7194 0008779 218.5065 293.1937 14.16603992 91997
