[{"OBJECT_NAME":"SL-8 R/B","OBJECT_ID":"1979-089B","EPOCH":"2026-04-12T04:14:09.682080","MEAN_MOTION":14.42373816,"ECCENTRICITY":0.00162047,"INCLINATION":74.0711,"RA_OF_ASC_NODE":29.0537,"ARG_OF_PERICENTER":196.5054,"MEAN_ANOMALY":163.5577,"EPHEMERIS_TYPE":0,"CLASSIFICATION_TYPE":"U","NORAD_CAT_ID":11574,"ELEMENT_SET_NO":999,"REV_AT_EPOCH":44093,"BSTAR":6.4793539e-5,"MEAN_MOTION_DOT":1.88e-6,"MEAN_MOTION_DDOT":0},{"OBJECT_NAME":"SL-14 R/B","OBJECT_ID":"1980-005B","EPOCH":"2026-04-11T21:09:23.425632","MEAN_MOTION":14.90970758,"ECCENTRICITY":0.0016955,"INCLINATION":82.5111,"RA_OF_ASC_NODE":275.7402,"ARG_OF_PERICENTER":56.0481,"MEAN_ANOMALY":304.2347,"EPHEMERIS_TYPE":0,"CLASSIFICATION_TYPE":"U","NORAD_CAT_ID":11672,"ELEMENT_SET_NO":999,"REV_AT_EPOCH":48143,"BSTAR":4.3841e-5,"MEAN_MOTION_DOT":4.6e-6,"MEAN_MOTION_DDOT":0},{"OBJECT_NAME":"SL-8 R/B","OBJECT_ID":"1981-003B","EPOCH":"2026-04-11T23:09:07.429248","MEAN_MOTION":15.12504618,"ECCENTRICITY":0.0257972,"INCLINATION":82.9372,"RA_OF_ASC_NODE":259.2173,"ARG_OF_PERICENTER":63.0698,"MEAN_ANOMALY":299.6636,"EPHEMERIS_TYPE":0,"CLASSIFICATION_TYPE":"U","NORAD_CAT_ID":12139,"ELEMENT_SET_NO":999,"REV_AT_EPOCH":31970,"BSTAR":0.0003859012,"MEAN_MOTION_DOT":0.00015534,"MEAN_MOTION_DDOT":0},{"OBJECT_NAME":"SL-3 R/B","OBJECT_ID":"1981-046B","EPOCH":"2026-04-12T06:13:22.904832","MEAN_MOTION":15.42861973,"ECCENTRICITY":0.0018025,"INCLINATION":81.2294,"RA_OF_ASC_NODE":249.4007,"ARG_OF_PERICENTER":262.0428,"MEAN_ANOMALY":97.8769,"EPHEMERIS_TYPE":0,"CLASSIFICATION_TYPE":"U","NORAD_CAT_ID":12465,"ELEMENT_SET_NO":999,"REV_AT_EPOCH":44360,"BSTAR":0.00019149523,"MEAN_MOTION_DOT":8.479e-5,"MEAN_MOTION_DDOT":0},{"OBJECT_NAME":"SL-3 R/B","OBJECT_ID":"1981-103B","EPOCH":"2026-04-12T05:52:46.374816","MEAN_MOTION":15.2177364,"ECCENTRICITY":0.00135648,"INCLINATION":81.1603,"RA_OF_ASC_NODE":174.0665,"ARG_OF_PERICENTER":169.0819,"MEAN_ANOMALY":191.071,"EPHEMERIS_TYPE":0,"CLASSIFICATION_TYPE":"U","NORAD_CAT_ID":12904,"ELEMENT_SET_NO":999,"REV_AT_EPOCH":97833,"BSTAR":0.0001147408,"MEAN_MOTION_DOT":2.633e-5,"MEAN_MOTION_DDOT":0},{"OBJECT_NAME":"SL-3 R/B","OBJECT_ID":"1982-013B","EPOCH":"2026-04-12T07:20:20.472000","MEAN_MOTION":15.22315964,"ECCENTRICITY":0.0023418,"INCLINATION":81.1716,"RA_OF_ASC_NODE":121.3582,"ARG_OF_PERICENTER":68.3213,"MEAN_ANOMALY":292.0509,"EPHEMERIS_TYPE":0,"CLASSIFICATION_TYPE":"U","NORAD_CAT_ID":13068,"ELEMENT_SET_NO":999,"REV_AT_EPOCH":40946,"BSTAR":0.00011236239,"MEAN_MOTION_DOT":2.635e-5,"MEAN_MOTION_DDOT":0},{"OBJECT_NAME":"SL-3 R/B","OBJECT_ID":"1982-039B","EPOCH":"2026-04-12T05:59:15.153216","MEAN_MOTION":15.1027144,"ECCENTRICITY":0.00279021,"INCLINATION":81.1534,"RA_OF_ASC_NODE":177.2587,"ARG_OF_PERICENTER":211.3969,"MEAN_ANOMALY":148.5592,"EPHEMERIS_TYPE":0,"CLASSIFICATION_TYPE":"U","NORAD_CAT_ID":13154,"ELEMENT_SET_NO":999,"REV_AT_EPOCH":38670,"BSTAR":7.6638342e-5,"MEAN_MOTION_DOT":1.289e-5,"MEAN_MOTION_DDOT":0},{"OBJECT_NAME":"SL-3 R/B","OBJECT_ID":"1982-079B","EPOCH":"2026-04-12T06:15:34.684704","MEAN_MOTION":15.2522795,"ECCENTRICITY":0.00251303,"INCLINATION":81.1465,"RA_OF_ASC_NODE":153.4309,"ARG_OF_PERICENTER":54.8865,"MEAN_ANOMALY":305.4719,"EPHEMERIS_TYPE":0,"CLASSIFICATION_TYPE":"U","NORAD_CAT_ID":13403,"ELEMENT_SET_NO":999,"REV_AT_EPOCH":38281,"BSTAR":0.00011487327,"MEAN_MOTION_DOT":2.938e-5,"MEAN_MOTION_DDOT":0},{"OBJECT_NAME":"SL-14 R/B","OBJECT_ID":"1982-092B","EPOCH":"2026-04-12T06:53:06.362880","MEAN_MOTION":14.86697237,"ECCENTRICITY":0.00201423,"INCLINATION":82.5645,"RA_OF_ASC_NODE":109.9646,"ARG_OF_PERICENTER":185.2242,"MEAN_ANOMALY":185.3318,"EPHEMERIS_TYPE":0,"CLASSIFICATION_TYPE":"U","NORAD_CAT_ID":13553,"ELEMENT_SET_NO":999,"REV_AT_EPOCH":33392,"BSTAR":3.3042793e-5,"MEAN_MOTION_DOT":3.19e-6,"MEAN_MOTION_DDOT":0},{"OBJECT_NAME":"SL-3 R/B","OBJECT_ID":"1983-010B","EPOCH":"2026-04-12T06:25:18.784128","MEAN_MOTION":15.47471401,"ECCENTRICITY":0.00150626,"INCLINATION":81.1029,"RA_OF_ASC_NODE":321.045,"ARG_OF_PERICENTER":291.9498,"MEAN_ANOMALY":68.0146,"EPHEMERIS_TYPE":0,"CLASSIFICATION_TYPE":"U","NORAD_CAT_ID":13819,"ELEMENT_SET_NO":999,"REV_AT_EPOCH":36313,"BSTAR":0.00016914372,"MEAN_MOTION_DOT":8.746e-5,"MEAN_MOTION_DDOT":0},{"OBJECT_NAME":"SL-3 R/B","OBJECT_ID":"1983-075B","EPOCH":"2026-04-12T05:46:55.680672","MEAN_MOTION":15.39241068,"ECCENTRICITY":0.00232223,"INCLINATION":97.6137,"RA_OF_ASC_NODE":108.1102,"ARG_OF_PERICENTER":108.5195,"MEAN_ANOMALY":251.8576,"EPHEMERIS_TYPE":0,"CLASSIFICATION_TYPE":"U","NORAD_CAT_ID":14208,"ELEMENT_SET_NO":999,"REV_AT_EPOCH":33531,"BSTAR":0.00018900047,"MEAN_MOTION_DOT":7.333e-5,"MEAN_MOTION_DDOT":0},{"OBJECT_NAME":"COSMOS 1536","OBJECT_ID":"1984-013A","EPOCH":"2026-04-12T04:54:38.613312","MEAN_MOTION":15.24311002,"ECCENTRICITY":0.00150487,"INCLINATION":82.5426,"RA_OF_ASC_NODE":74.5139,"ARG_OF_PERICENTER":157.0568,"MEAN_ANOMALY":203.1345,"EPHEMERIS_TYPE":0,"CLASSIFICATION_TYPE":"U","NORAD_CAT_ID":14699,"ELEMENT_SET_NO":999,"REV_AT_EPOCH":27772,"BSTAR":0.00020115232,"MEAN_MOTION_DOT":4.964e-5,"MEAN_MOTION_DDOT":0},{"OBJECT_NAME":"SL-14 R/B","OBJECT_ID":"1984-027B","EPOCH":"2026-04-12T07:03:32.979744","MEAN_MOTION":14.86014238,"ECCENTRICITY":0.00170363,"INCLINATION":82.5439,"RA_OF_ASC_NODE":213.4979,"ARG_OF_PERICENTER":218.3564,"MEAN_ANOMALY":141.6442,"EPHEMERIS_TYPE":0,"CLASSIFICATION_TYPE":"U","NORAD_CAT_ID":14820,"ELEMENT_SET_NO":999,"REV_AT_EPOCH":25262,"BSTAR":3.7158745e-5,"MEAN_MOTION_DOT":3.5e-6,"MEAN_MOTION_DDOT":0},{"OBJECT_NAME":"SL-8 R/B","OBJECT_ID":"1985-006B","EPOCH":"2026-04-12T06:12:32.618304","MEAN_MOTION":14.37806813,"ECCENTRICITY":0.00172909,"INCLINATION":74.0466,"RA_OF_ASC_NODE":199.3783,"ARG_OF_PERICENTER":106.5097,"MEAN_ANOMALY":284.105,"EPHEMERIS_TYPE":0,"CLASSIFICATION_TYPE":"U","NORAD_CAT_ID":15483,"ELEMENT_SET_NO":999,"REV_AT_EPOCH":15885,"BSTAR":5.5323245e-5,"MEAN_MOTION_DOT":1.41e-6,"MEAN_MOTION_DDOT":0},{"OBJECT_NAME":"SL-12 R/B(2)","OBJECT_ID":"1985-042D","EPOCH":"2026-04-12T04:42:42.714144","MEAN_MOTION":14.21992386,"ECCENTRICITY":0.00329914,"INCLINATION":71.1106,"RA_OF_ASC_NODE":16.9383,"ARG_OF_PERICENTER":72.5019,"MEAN_ANOMALY":79.1639,"EPHEMERIS_TYPE":0,"CLASSIFICATION_TYPE":"U","NORAD_CAT_ID":15772,"ELEMENT_SET_NO":999,"REV_AT_EPOCH":11915,"BSTAR":5.6730657e-5,"MEAN_MOTION_DOT":7.9e-7,"MEAN_MOTION_DDOT":0},{"OBJECT_NAME":"SL-14 R/B","OBJECT_ID":"1985-069B","EPOCH":"2026-04-12T03:12:58.991904","MEAN_MOTION":14.86469622,"ECCENTRICITY":0.00203618,"INCLINATION":82.5297,"RA_OF_ASC_NODE":353.494,"ARG_OF_PERICENTER":82.2454,"MEAN_ANOMALY":278.1073,"EPHEMERIS_TYPE":0,"CLASSIFICATION_TYPE":"U","NORAD_CAT_ID":15945,"ELEMENT_SET_NO":999,"REV_AT_EPOCH":17780,"BSTAR":3.4050986e-5,"MEAN_MOTION_DOT":3.27e-6,"MEAN_MOTION_DDOT":0},{"OBJECT_NAME":"SL-16 R/B","OBJECT_ID":"1985-097B","EPOCH":"2026-04-12T08:00:15.804000","MEAN_MOTION":14.16603992,"ECCENTRICITY":0.0008779,"INCLINATION":71.002,"RA_OF_ASC_NODE":69.7194,"ARG_OF_PERICENTER":218.5065,"MEAN_ANOMALY":293.1937,"EPHEMERIS_TYPE":0,"CLASSIFICATION_TYPE":"U","NORAD_CAT_ID":16182,"ELEMENT_SET_NO":999,"REV_AT_EPOCH":9199,"BSTAR":0.00014861735,"MEAN_MOTION_DOT":2.49e-6,"MEAN_MOTION_DDOT":0}]
